{
  "type": "FeatureCollection",
  "features": [
    {
      "type": "Feature",
      "properties": {
        "norad_id": 66174,
        "name": "HTV-X1",
        "group": "stations",
        "lat": -43.73095994662731,
        "lon": 84.97057478373223,
        "alt_km": 420.90625760165494,
        "timestamp": "2025-12-14T09:36:21.802778+00:00",
        "meta_object_name": "HTV-X1",
        "meta_object_id": "2025-241A",
        "meta_epoch": "2025-12-13T13:45:03.960000",
        "meta_mean_motion": 15.49569091,
        "meta_eccentricity": 0.00032302,
        "meta_inclination": 51.6303,
        "meta_ra_of_asc_node": 138.3533,
        "meta_arg_of_pericenter": 244.1175,
        "meta_mean_anomaly": 115.9481,
        "meta_ephemeris_type": 0,
        "meta_classification_type": "U",
        "meta_norad_cat_id": 66174,
        "meta_element_set_no": 999,
        "meta_rev_at_epoch": 51,
        "meta_bstar": 0.00023044054,
        "meta_mean_motion_dot": 0.00012521,
        "meta_mean_motion_ddot": 0,
        "tle_line1": "1 66174U 25241A   25347.57296250  .00012521  00000+0  23044-3 0  9991",
        "tle_line2": "2 66174  51.6303 138.3533 0003230 244.1175 115.9481 15.49569091   516"
      },
      "geometry": {
        "type": "Point",
        "coordinates": [
          84.97057478373223,
          -43.73095994662731
        ]
      }
    },
    {
      "type": "Feature",
      "properties": {
        "norad_id": 66515,
        "name": "SZ-21 MODULE",
        "group": "stations",
        "lat": 26.39692049258179,
        "lon": 40.097494459506756,
        "alt_km": 378.49753795942706,
        "timestamp": "2025-12-14T09:36:21.802788+00:00",
        "meta_object_name": "SZ-21 MODULE",
        "meta_object_id": "2025-246C",
        "meta_epoch": "2025-12-13T05:48:56.217312",
        "meta_mean_motion": 15.62521016,
        "meta_eccentricity": 0.00062862,
        "meta_inclination": 41.4775,
        "meta_ra_of_asc_node": 12.9802,
        "meta_arg_of_pericenter": 263.0797,
        "meta_mean_anomaly": 96.9328,
        "meta_ephemeris_type": 0,
        "meta_classification_type": "U",
        "meta_norad_cat_id": 66515,
        "meta_element_set_no": 999,
        "meta_rev_at_epoch": 452,
        "meta_bstar": 0.00043386364,
        "meta_mean_motion_dot": 0.00039667,
        "meta_mean_motion_ddot": 0,
        "tle_line1": "1 66515U 25246C   25347.24231733  .00039667  00000+0  43386-3 0  9995",
        "tle_line2": "2 66515  41.4775  12.9802 0006286 263.0797  96.9328 15.62521016  4528"
      },
      "geometry": {
        "type": "Point",
        "coordinates": [
          40.097494459506756,
          26.39692049258179
        ]
      }
    },
    {
      "type": "Feature",
      "properties": {
        "norad_id": 66645,
        "name": "SHENZHOU-22",
        "group": "stations",
        "lat": 37.19962510538482,
        "lon": 127.3642111137073,
        "alt_km": 381.8563568625559,
        "timestamp": "2025-12-14T09:36:21.802800+00:00",
        "meta_object_name": "SHENZHOU-22",
        "meta_object_id": "2025-272A",
        "meta_epoch": "2025-12-13T13:08:11.407200",
        "meta_mean_motion": 15.59213599,
        "meta_eccentricity": 0.0008179,
        "meta_inclination": 41.4684,
        "meta_ra_of_asc_node": 11.8051,
        "meta_arg_of_pericenter": 37.3165,
        "meta_mean_anomaly": 322.8241,
        "meta_ephemeris_type": 0,
        "meta_classification_type": "U",
        "meta_norad_cat_id": 66645,
        "meta_element_set_no": 999,
        "meta_rev_at_epoch": 26357,
        "meta_bstar": 0.00029086041,
        "meta_mean_motion_dot": 0.00023242,
        "meta_mean_motion_ddot": 0,
        "tle_line1": "1 66645U 25272A   25347.54735425  .00023242  00000+0  29086-3 0  9991",
        "tle_line2": "2 66645  41.4684  11.8051 0008179  37.3165 322.8241 15.59213599263576"
      },
      "geometry": {
        "type": "Point",
        "coordinates": [
          127.3642111137073,
          37.19962510538482
        ]
      }
    },
    {
      "type": "Feature",
      "properties": {
        "norad_id": 66664,
        "name": "SOYUZ-MS 28",
        "group": "stations",
        "lat": -43.73095889081976,
        "lon": 84.97057723791175,
        "alt_km": 420.90625762301624,
        "timestamp": "2025-12-14T09:36:21.802810+00:00",
        "meta_object_name": "SOYUZ-MS 28",
        "meta_object_id": "2025-275A",
        "meta_epoch": "2025-12-13T13:45:03.960000",
        "meta_mean_motion": 15.49569091,
        "meta_eccentricity": 0.00032302,
        "meta_inclination": 51.6303,
        "meta_ra_of_asc_node": 138.3533,
        "meta_arg_of_pericenter": 244.1175,
        "meta_mean_anomaly": 115.9481,
        "meta_ephemeris_type": 0,
        "meta_classification_type": "U",
        "meta_norad_cat_id": 66664,
        "meta_element_set_no": 999,
        "meta_rev_at_epoch": 128,
        "meta_bstar": 0.00023044054,
        "meta_mean_motion_dot": 0.00012521,
        "meta_mean_motion_ddot": 0,
        "tle_line1": "1 66664U 25275A   25347.57296250  .00012521  00000+0  23044-3 0  9992",
        "tle_line2": "2 66664  51.6303 138.3533 0003230 244.1175 115.9481 15.49569091  1285"
      },
      "geometry": {
        "type": "Point",
        "coordinates": [
          84.97057723791175,
          -43.73095889081976
        ]
      }
    },
    {
      "type": "Feature",
      "properties": {
        "norad_id": 66906,
        "name": "1998-067XS",
        "group": "stations",
        "lat": -20.15817149318515,
        "lon": 117.27190379834795,
        "alt_km": 419.0196033185257,
        "timestamp": "2025-12-14T09:36:21.802821+00:00",
        "meta_object_name": "1998-067XS",
        "meta_object_id": "1998-067XS",
        "meta_epoch": "2025-12-13T16:42:15.922368",
        "meta_mean_motion": 15.50633628,
        "meta_eccentricity": 0.00035389,
        "meta_inclination": 51.6301,
        "meta_ra_of_asc_node": 137.6756,
        "meta_arg_of_pericenter": 207.2651,
        "meta_mean_anomaly": 152.8153,
        "meta_ephemeris_type": 0,
        "meta_classification_type": "U",
        "meta_norad_cat_id": 66906,
        "meta_element_set_no": 999,
        "meta_rev_at_epoch": 176,
        "meta_bstar": 0.00054648789,
        "meta_mean_motion_dot": 0.00031569,
        "meta_mean_motion_ddot": 0,
        "tle_line1": "1 66906U 98067XS  25347.69601762  .00031569  00000+0  54649-3 0  9999",
        "tle_line2": "2 66906  51.6301 137.6756 0003538 207.2651 152.8153 15.50633628  1760"
      },
      "geometry": {
        "type": "Point",
        "coordinates": [
          117.27190379834795,
          -20.15817149318515
        ]
      }
    },
    {
      "type": "Feature",
      "properties": {
        "norad_id": 66907,
        "name": "1998-067XT",
        "group": "stations",
        "lat": -4.037812090262102,
        "lon": 130.9317605362106,
        "alt_km": 414.48752483275985,
        "timestamp": "2025-12-14T09:36:21.802831+00:00",
        "meta_object_name": "1998-067XT",
        "meta_object_id": "1998-067XT",
        "meta_epoch": "2025-12-13T16:37:31.235232",
        "meta_mean_motion": 15.51604707,
        "meta_eccentricity": 0.00043667,
        "meta_inclination": 51.6303,
        "meta_ra_of_asc_node": 137.6541,
        "meta_arg_of_pericenter": 232.3065,
        "meta_mean_anomaly": 127.7529,
        "meta_ephemeris_type": 0,
        "meta_classification_type": "U",
        "meta_norad_cat_id": 66907,
        "meta_element_set_no": 999,
        "meta_rev_at_epoch": 176,
        "meta_bstar": 0.0011074189,
        "meta_mean_motion_dot": 0.00067037,
        "meta_mean_motion_ddot": 0,
        "tle_line1": "1 66907U 98067XT  25347.69272263  .00067037  00000+0  11074-2 0  9993",
        "tle_line2": "2 66907  51.6303 137.6541 0004366 232.3065 127.7529 15.51604707  1768"
      },
      "geometry": {
        "type": "Point",
        "coordinates": [
          130.9317605362106,
          -4.037812090262102
        ]
      }
    },
    {
      "type": "Feature",
      "properties": {
        "norad_id": 66908,
        "name": "1998-067XU",
        "group": "stations",
        "lat": -2.199269326166896,
        "lon": 132.38876275019572,
        "alt_km": 414.1655059644063,
        "timestamp": "2025-12-14T09:36:21.802843+00:00",
        "meta_object_name": "1998-067XU",
        "meta_object_id": "1998-067XU",
        "meta_epoch": "2025-12-13T16:36:58.397184",
        "meta_mean_motion": 15.51689462,
        "meta_eccentricity": 0.0004467,
        "meta_inclination": 51.6298,
        "meta_ra_of_asc_node": 137.651,
        "meta_arg_of_pericenter": 231.591,
        "meta_mean_anomaly": 128.4679,
        "meta_ephemeris_type": 0,
        "meta_classification_type": "U",
        "meta_norad_cat_id": 66908,
        "meta_element_set_no": 999,
        "meta_rev_at_epoch": 176,
        "meta_bstar": 0.0011749289,
        "meta_mean_motion_dot": 0.0007141,
        "meta_mean_motion_ddot": 0,
        "tle_line1": "1 66908U 98067XU  25347.69234256  .00071410  00000+0  11749-2 0  9993",
        "tle_line2": "2 66908  51.6298 137.6510 0004467 231.5910 128.4679 15.51689462  1765"
      },
      "geometry": {
        "type": "Point",
        "coordinates": [
          132.38876275019572,
          -2.199269326166896
        ]
      }
    }
  ]
}